ONEWEB-0336             
1 49202U 21083S   26204.29067138  .00000377  00000+0  99855-3 0  9996
2 49202  87.8978 313.0434 0001732  92.6609 267.4718 13.13469454235655
ONEWEB-0337             
1 49203U 21083T   26204.52923258  .00000311  00000+0  81549-3 0  9996
2 49203  87.8982 313.0018 0001968  93.7266 266.4088 13.13469093235682
ONEWEB-0338             
1 49204U 21083U   26204.40436578 -.00000017  00000+0 -73109-4 0  9997
2 49204  87.9177 267.2294 0002159 105.1207 255.0165 13.20770864241598
ONEWEB-0339             
1 49205U 21083V   26204.53782647  .00000015  00000+0  63655-5 0  9995
2 49205  87.8984 312.9936 0002184 103.9533 256.1839 13.13467898235664
ONEWEB-0340             
1 49206U 21083W   26204.63011778  .00000015  00000+0  45795-5 0  9992
2 49206  87.9208 328.2114 0001792  93.8335 266.3002 13.18685135234771
ONEWEB-0341             
1 49207U 21083X   26204.33335122 -.00000032  00000+0 -11375-3 0  9998
2 49207  87.9197 328.2706 0002231  87.0011 273.1376 13.18685031234754
ONEWEB-0342             
1 49208U 21083Y   26204.41108607  .00000004  00000+0 -22657-4 0  9998
2 49208  87.9178 267.2184 0002118  98.8343 261.3030 13.20769817241569
ONEWEB-0343             
1 49209U 21083Z   26204.34178147  .00000041  00000+0  72380-4 0  9995
2 49209  87.9199 328.2686 0002281 103.0745 257.0641 13.18684923234804
ONEWEB-0344             
1 49210U 21083AA  26204.30420362  .00000223  00000+0  57704-3 0  9996
2 49210  87.8979 313.0525 0002134  88.9171 271.2203 13.13468993235632
ONEWEB-0345             
1 49211U 21083AB  26204.29574736  .00000351  00000+0  92739-3 0  9999
2 49211  87.8990 313.0399 0002123  92.1311 268.0061 13.13470273235647
ONEWEB-0346             
1 49212U 21083AC  26204.33840958  .00000059  00000+0  11755-3 0  9991
2 49212  87.9194 328.2681 0001332  87.0477 273.0807 13.18684865234747
ONEWEB-0348             
1 49213U 21083AD  26204.47675417 -.00000008  00000+0 -52020-4 0  9990
2 49213  87.9181 267.2098 0001882  82.7270 277.4077 13.20772455241607
ONEWEB-0350             
1 49214U 21083AE  26204.31449136  .00000034  00000+0  58869-4 0  9995
2 49214  87.8986 313.0403 0002005 131.2285 228.9017 13.13468575235676
ONEWEB-0351             
1 49215U 21083AF  26204.46988912 -.00000038  00000+0 -12554-3 0  9998
2 49215  87.9181 267.2100 0002687  97.8560 262.2878 13.20770668241566
ONEWEB-0352             
1 49216U 21083AG  26204.59030255  .00000271  00000+0  70687-3 0  9999
2 49216  87.8979 312.9895 0002349 103.4921 256.6470 13.13470614235805
ONEWEB-0354             
1 49217U 21083AH  26204.42120504  .00000049  00000+0  88060-4 0  9997
2 49217  87.9177 267.2184 0002033  85.4868 274.6498 13.20771529241599
ONEWEB-0355             
1 49218U 21083AJ  26204.54373028  .00000049  00000+0  99373-4 0  9991
2 49218  87.8986 312.9996 0002204  98.3233 261.8146 13.13467526235676
ONEWEB-0357             
1 49219U 21083AK  26204.41784835 -.00000984  00000+0 -24520-2 0  9990
2 49219  87.9177 267.2133 0002223  93.7743 266.3645 13.20779966241595
ONEWEB-0332             
1 49279U 21090A   26204.60293516  .00000072  00000+0  15882-3 0  9994
2 49279  87.8964 282.4537 0002107 104.9281 255.2083 13.14502992232368
ONEWEB-0347             
1 49280U 21090B   26204.40773589 -.00000052  00000+0 -16092-3 0  9991
2 49280  87.9177 267.2228 0002078 105.1791 254.9573 13.20771083235821
ONEWEB-0349             
1 49281U 21090C   26204.59123057  .00000115  00000+0  25167-3 0  9992
2 49281  87.9174 267.1871 0002055  97.6175 262.5192 13.20770983234636
ONEWEB-0353             
1 49282U 21090D   26204.51889545  .00000188  00000+0  47336-3 0  9998
2 49282  87.8963 282.4667 0002096 107.1164 253.0196 13.14502748232356
ONEWEB-0356             
1 49283U 21090E   26204.21076803  .00000064  00000+0  12517-3 0  9997
2 49283  87.9176 267.2561 0001291 105.3615 254.7661 13.20771760234586
ONEWEB-0358             
1 49284U 21090F   26204.24695192 -.00000075  00000+0 -21591-3 0  9995
2 49284  87.9183 267.2571 0001874  94.4457 265.6890 13.20770609235313
ONEWEB-0359             
1 49285U 21090G   26204.16194373 -.00000107  00000+0 -29459-3 0  9999
2 49285  87.9181 267.2658 0001973  89.3668 270.7691 13.20770365235286
ONEWEB-0360             
1 49286U 21090H   26204.60639599  .00000091  00000+0  19198-3 0  9992
2 49286  87.9173 267.1833 0002139  95.7193 264.4185 13.20771609234651
ONEWEB-0361             
1 49287U 21090J   26204.20907699  .00000034  00000+0  50856-4 0  9992
2 49287  87.9175 267.2613 0001959  94.8459 265.2898 13.20769963235050
ONEWEB-0362             
1 49288U 21090K   26204.49345832  .00000017  00000+0  93926-5 0  9996
2 49288  87.9185 297.7490 0002253  98.1788 261.9600 13.19724116231704
ONEWEB-0363             
1 49289U 21090L   26204.60301457  .00000030  00000+0  40784-4 0  9993
2 49289  87.9174 267.1826 0001721  98.0392 262.0937 13.20772338235111
ONEWEB-0364             
1 49290U 21090M   26204.18719783  .00000025  00000+0  29642-4 0  9997
2 49290  87.9177 267.2734 0002109  97.6209 262.5164 13.20771278236196
