OBJECT_NAME,OBJECT_ID,EPOCH,MEAN_MOTION,ECCENTRICITY,INCLINATION,RA_OF_ASC_NODE,ARG_OF_PERICENTER,MEAN_ANOMALY,EPHEMERIS_TYPE,CLASSIFICATION_TYPE,NORAD_CAT_ID,ELEMENT_SET_NO,REV_AT_EPOCH,BSTAR,MEAN_MOTION_DOT,MEAN_MOTION_DDOT
ONEWEB-0336,2021-083S,2026-07-23T06:58:34.007232,13.13469454,.00017329,87.8978,313.0434,92.6609,267.4718,0,U,49202,999,23565,.99854559E-3,.377E-5,0
ONEWEB-0337,2021-083T,2026-07-23T12:42:05.694912,13.13469093,.00019689,87.8982,313.0018,93.7266,266.4088,0,U,49203,999,23568,.81549157E-3,.311E-5,0
ONEWEB-0338,2021-083U,2026-07-23T09:42:17.203392,13.20770864,.00021593,87.9177,267.2294,105.1207,255.0165,0,U,49204,999,24159,-.73109371E-4,-.17E-6,0
ONEWEB-0339,2021-083V,2026-07-23T12:54:28.207008,13.13467898,.00021843,87.8984,312.9936,103.9533,256.1839,0,U,49205,999,23566,.6365532E-5,.15E-6,0
ONEWEB-0340,2021-083W,2026-07-23T15:07:22.176192,13.18685135,.00017921,87.9208,328.2114,93.8335,266.3002,0,U,49206,999,23477,.4579489E-5,.15E-6,0
ONEWEB-0341,2021-083X,2026-07-23T08:00:01.545408,13.18685031,.00022319,87.9197,328.2706,87.0011,273.1376,0,U,49207,999,23475,-.11374815E-3,-.32E-6,0
ONEWEB-0342,2021-083Y,2026-07-23T09:51:57.836448,13.20769817,.00021181,87.9178,267.2184,98.8343,261.3030,0,U,49208,999,24156,-.22657346E-4,.4E-7,0
ONEWEB-0343,2021-083Z,2026-07-23T08:12:09.919008,13.18684923,.00022812,87.9199,328.2686,103.0745,257.0641,0,U,49209,999,23480,.72380246E-4,.41E-6,0
ONEWEB-0344,2021-083AA,2026-07-23T07:18:03.192768,13.13468993,.00021341,87.8979,313.0525,88.9171,271.2203,0,U,49210,999,23563,.57704206E-3,.223E-5,0
ONEWEB-0345,2021-083AB,2026-07-23T07:05:52.571904,13.13470273,.0002123,87.8990,313.0399,92.1311,268.0061,0,U,49211,999,23564,.92738751E-3,.351E-5,0
ONEWEB-0346,2021-083AC,2026-07-23T08:07:18.587712,13.18684865,.00013324,87.9194,328.2681,87.0477,273.0807,0,U,49212,999,23474,.11754609E-3,.59E-6,0
ONEWEB-0348,2021-083AD,2026-07-23T11:26:31.560288,13.20772455,.00018821,87.9181,267.2098,82.7270,277.4077,0,U,49213,999,24160,-.52020477E-4,-.8E-7,0
ONEWEB-0350,2021-083AE,2026-07-23T07:32:52.053504,13.13468575,.00020056,87.8986,313.0403,131.2285,228.9017,0,U,49214,999,23567,.58869251E-4,.34E-6,0
ONEWEB-0351,2021-083AF,2026-07-23T11:16:38.419968,13.20770668,.00026876,87.9181,267.2100,97.8560,262.2878,0,U,49215,999,24156,-.12553902E-3,-.38E-6,0
ONEWEB-0352,2021-083AG,2026-07-23T14:10:02.140320,13.13470614,.00023494,87.8979,312.9895,103.4921,256.6470,0,U,49216,999,23580,.70686635E-3,.271E-5,0
ONEWEB-0354,2021-083AH,2026-07-23T10:06:32.115456,13.20771529,.00020334,87.9177,267.2184,85.4868,274.6498,0,U,49217,999,24159,.88060204E-4,.49E-6,0
ONEWEB-0355,2021-083AJ,2026-07-23T13:02:58.296192,13.13467526,.0002204,87.8986,312.9996,98.3233,261.8146,0,U,49218,999,23567,.99372766E-4,.49E-6,0
ONEWEB-0357,2021-083AK,2026-07-23T10:01:42.097440,13.20779966,.00022234,87.9177,267.2133,93.7743,266.3645,0,U,49219,999,24159,-.24519545E-2,-.984E-5,0
ONEWEB-0332,2021-090A,2026-07-23T14:28:13.597824,13.14502992,.00021072,87.8964,282.4537,104.9281,255.2083,0,U,49279,999,23236,.15881983E-3,.72E-6,0
ONEWEB-0347,2021-090B,2026-07-23T09:47:08.380896,13.20771083,.00020788,87.9177,267.2228,105.1791,254.9573,0,U,49280,999,23582,-.16091658E-3,-.52E-6,0
ONEWEB-0349,2021-090C,2026-07-23T14:11:22.321248,13.20770983,.00020555,87.9174,267.1871,97.6175,262.5192,0,U,49281,999,23463,.25166508E-3,.115E-5,0
ONEWEB-0353,2021-090D,2026-07-23T12:27:12.566880,13.14502748,.00020966,87.8963,282.4667,107.1164,253.0196,0,U,49282,999,23235,.47335837E-3,.188E-5,0
ONEWEB-0356,2021-090E,2026-07-23T05:03:30.357792,13.20771760,.00012912,87.9176,267.2561,105.3615,254.7661,0,U,49283,999,23458,.12517472E-3,.64E-6,0
ONEWEB-0358,2021-090F,2026-07-23T05:55:36.645888,13.20770609,.00018744,87.9183,267.2571,94.4457,265.6890,0,U,49284,999,23531,-.21590515E-3,-.75E-6,0
ONEWEB-0359,2021-090G,2026-07-23T03:53:11.938272,13.20770365,.00019739,87.9181,267.2658,89.3668,270.7691,0,U,49285,999,23528,-.29459268E-3,-.107E-5,0
ONEWEB-0360,2021-090H,2026-07-23T14:33:12.613536,13.20771609,.00021393,87.9173,267.1833,95.7193,264.4185,0,U,49286,999,23465,.19197531E-3,.91E-6,0
ONEWEB-0361,2021-090J,2026-07-23T05:01:04.251936,13.20769963,.00019594,87.9175,267.2613,94.8459,265.2898,0,U,49287,999,23505,.50856373E-4,.34E-6,0
ONEWEB-0362,2021-090K,2026-07-23T11:50:34.798848,13.19724116,.00022532,87.9185,297.7490,98.1788,261.9600,0,U,49288,999,23170,.9392561E-5,.17E-6,0
ONEWEB-0363,2021-090L,2026-07-23T14:28:20.458848,13.20772338,.00017216,87.9174,267.1826,98.0392,262.0937,0,U,49289,999,23511,.40784407E-4,.3E-6,0
ONEWEB-0364,2021-090M,2026-07-23T04:29:33.892512,13.20771278,.0002109,87.9177,267.2734,97.6209,262.5164,0,U,49290,999,23619,.29642105E-4,.25E-6,0
